[{"OBJECT_NAME":"YAM-7","OBJECT_ID":"2024-149AN","EPOCH":"2026-03-09T17:13:55.117920","MEAN_MOTION":15.30304554,"ECCENTRICITY":0.00019733,"INCLINATION":97.3828,"RA_OF_ASC_NODE":149.4631,"ARG_OF_PERICENTER":296.5121,"MEAN_ANOMALY":63.5918,"EPHEMERIS_TYPE":0,"CLASSIFICATION_TYPE":"U","NORAD_CAT_ID":60504,"ELEMENT_SET_NO":999,"REV_AT_EPOCH":8683,"BSTAR":0.00030984439,"MEAN_MOTION_DOT":9.009e-5,"MEAN_MOTION_DDOT":0},{"OBJECT_NAME":"STARLINK-32915","OBJECT_ID":"2025-043W","EPOCH":"2026-03-08T21:49:09.885216","MEAN_MOTION":15.27588605,"ECCENTRICITY":0.0001231,"INCLINATION":42.9991,"RA_OF_ASC_NODE":27.4604,"ARG_OF_PERICENTER":246.1784,"MEAN_ANOMALY":113.8939,"EPHEMERIS_TYPE":0,"CLASSIFICATION_TYPE":"U","NORAD_CAT_ID":63152,"ELEMENT_SET_NO":999,"REV_AT_EPOCH":5716,"BSTAR":0.0013152863,"MEAN_MOTION_DOT":0.00036119,"MEAN_MOTION_DDOT":0}]
